OBJECT_NAME,OBJECT_ID,EPOCH,MEAN_MOTION,ECCENTRICITY,INCLINATION,RA_OF_ASC_NODE,ARG_OF_PERICENTER,MEAN_ANOMALY,EPHEMERIS_TYPE,CLASSIFICATION_TYPE,NORAD_CAT_ID,ELEMENT_SET_NO,REV_AT_EPOCH,BSTAR,MEAN_MOTION_DOT,MEAN_MOTION_DDOT
ASTRA 1M,2008-057A,2026-06-30T19:18:07.543872,1.00271044,.00050261,0.3299,82.6594,30.0730,115.0458,0,U,33436,999,4587,0,.131E-5,0
EUTELSAT HOTBIRD 13C,2008-065A,2026-06-30T18:58:14.519712,1.00271773,.00034831,2.9834,79.0393,19.6071,54.4656,0,U,33459,999,4748,0,-.274E-5,0
EXPRESS-AM44,2009-007A,2026-06-30T19:09:29.011680,1.00272102,.00043086,3.4975,78.2354,12.8691,104.1138,0,U,33595,999,5242,0,-.81E-6,0
NSS-9,2009-008A,2026-06-30T18:22:06.868992,1.00271862,.0002433,1.2951,82.5404,8.1723,286.7105,0,U,33749,999,6365,0,.81E-6,0
TELSTAR 11N,2009-009A,2026-06-30T19:01:51.672288,1.00270236,.00027481,0.0188,22.9687,77.0279,66.7606,0,U,34111,999,4638,0,-.24E-5,0
WGS F2 (USA 204),2009-017A,2026-06-30T17:46:15.455424,1.00272498,.00004583,0.0196,12.4531,123.4616,106.9754,0,U,34713,999,4575,0,.78E-6,0
MEASAT-3A,2009-032A,2026-06-30T18:15:30.002688,1.00271910,.00032749,0.0258,336.3798,115.2565,261.0727,0,U,35362,999,816,0,-.1E-5,0
GOES 14,2009-033A,2026-06-30T19:50:43.396224,1.00106450,.00022761,1.7235,82.8906,23.5593,243.9584,0,U,35491,999,672,0,-.325E-5,0
FM-5,2009-034A,2026-06-30T03:24:03.799296,1.00272155,.00010401,0.0344,280.3187,70.2395,252.5130,0,U,35493,999,4677,0,-.189E-5,0
TERRESTAR-1,2009-035A,2026-06-30T09:30:38.719008,1.00270755,.00026066,5.1873,48.7895,41.8300,219.4885,0,U,35496,999,6226,0,-.49E-6,0
ASIASAT 5,2009-042A,2026-06-30T17:22:21.775296,1.00272017,.00013793,0.0229,61.4701,12.3658,206.0491,0,U,35696,999,6184,0,-.297E-5,0
OPTUS D3,2009-044B,2026-06-29T23:25:11.906400,1.00272786,.00034184,0.8809,268.5859,192.5334,324.3687,0,U,35756,999,6169,0,-.134E-5,0
NIMIQ 5,2009-050A,2026-06-30T14:41:56.453280,1.00271111,.00030319,0.0304,279.9511,170.9963,335.5151,0,U,35873,999,6147,0,-.246E-5,0
AMAZONAS 2,2009-054A,2026-06-30T18:51:56.509344,1.00269589,.00035524,1.8491,82.8884,20.2316,26.7005,0,U,35942,999,6132,0,-.25E-5,0
NSS-12,2009-058A,2026-06-30T17:46:07.967136,1.00271732,.0004951,0.0681,276.8699,150.8942,174.5643,0,U,36032,999,6105,0,.82E-6,0
THOR 6,2009-058B,2026-06-30T17:29:38.931648,1.00269501,.00022104,0.0166,50.4831,68.6155,61.2690,0,U,36033,999,6114,0,0,0
INTELSAT 14 (IS-14),2009-064A,2026-06-30T18:59:44.375712,1.00270248,.0002736,0.0266,290.1951,171.9097,56.6835,0,U,36097,999,6074,0,-.263E-5,0
WGS F3 (USA 211),2009-068A,2026-06-30T18:35:28.089024,1.00271419,.00005884,0.3098,85.7225,345.9918,356.0069,0,U,36108,999,4672,0,.74E-6,0
BEIDOU-2 G1,2010-001A,2026-06-30T14:44:38.780736,1.00272139,.00021606,4.3240,60.3684,309.0805,270.8765,0,U,36287,999,6030,0,-.272E-5,0
SDO,2010-005A,2026-06-30T05:53:38.601888,1.00270579,.00014936,34.6771,86.1450,51.4419,126.9147,0,U,36395,999,6019,0,-.9E-6,0
ECHOSTAR 14,2010-010A,2026-06-30T14:31:09.304320,1.00271372,.00023459,0.0154,320.7663,127.6514,289.1441,0,U,36499,999,4668,0,.11E-6,0
SES-1,2010-016A,2026-06-30T14:21:22.694112,1.00272165,.00029508,0.0206,320.6511,135.1829,297.1768,0,U,36516,999,5916,0,-.104E-5,0
