ASTRA 1M                
1 33436U 08057A   26181.80425397  .00000131  00000+0  00000+0 0  9998
2 33436   0.3299  82.6594 0005026  30.0730 115.0458  1.00271044 45871
EUTELSAT HOTBIRD 13C    
1 33459U 08065A   26181.79044582 -.00000274  00000+0  00000+0 0  9992
2 33459   2.9834  79.0393 0003483  19.6071  54.4656  1.00271773 47486
EXPRESS-AM44            
1 33595U 09007A   26181.79825245 -.00000081  00000+0  00000+0 0  9999
2 33595   3.4975  78.2354 0004309  12.8691 104.1138  1.00272102 52423
NSS-9                   
1 33749U 09008A   26181.76535727  .00000081  00000+0  00000+0 0  9990
2 33749   1.2951  82.5404 0002433   8.1723 286.7105  1.00271862 63658
TELSTAR 11N             
1 34111U 09009A   26181.79295917 -.00000240  00000+0  00000+0 0  9990
2 34111   0.0188  22.9687 0002748  77.0279  66.7606  1.00270236 46389
WGS F2 (USA 204)        
1 34713U 09017A   26181.74045666  .00000078  00000+0  00000+0 0  9994
2 34713   0.0196  12.4531 0000458 123.4616 106.9754  1.00272498 45758
MEASAT-3A               
1 35362U 09032A   26181.76076391 -.00000100  00000+0  00000+0 0  9990
2 35362   0.0258 336.3798 0003275 115.2565 261.0727  1.00271910  8168
GOES 14                 
1 35491U 09033A   26181.82689116 -.00000325  00000+0  00000+0 0  9995
2 35491   1.7235  82.8906 0002276  23.5593 243.9584  1.00106450  6726
FM-5                    
1 35493U 09034A   26181.14171064 -.00000189  00000+0  00000+0 0  9999
2 35493   0.0344 280.3187 0001040  70.2395 252.5130  1.00272155 46772
TERRESTAR-1             
1 35496U 09035A   26181.39628147 -.00000049  00000+0  00000+0 0  9994
2 35496   5.1873  48.7895 0002606  41.8300 219.4885  1.00270755 62264
ASIASAT 5               
1 35696U 09042A   26181.72386313 -.00000297  00000+0  00000+0 0  9992
2 35696   0.0229  61.4701 0001379  12.3658 206.0491  1.00272017 61849
OPTUS D3                
1 35756U 09044B   26180.97583225 -.00000134  00000+0  00000+0 0  9998
2 35756   0.8809 268.5859 0003418 192.5334 324.3687  1.00272786 61697
NIMIQ 5                 
1 35873U 09050A   26181.61245895 -.00000246  00000+0  00000+0 0  9999
2 35873   0.0304 279.9511 0003032 170.9963 335.5151  1.00271111 61477
AMAZONAS 2              
1 35942U 09054A   26181.78607071 -.00000250  00000+0  00000+0 0  9991
2 35942   1.8491  82.8884 0003552  20.2316  26.7005  1.00269589 61327
NSS-12                  
1 36032U 09058A   26181.74036999  .00000082  00000+0  00000+0 0  9999
2 36032   0.0681 276.8699 0004951 150.8942 174.5643  1.00271732 61051
THOR 6                  
1 36033U 09058B   26181.72892281  .00000000  00000+0  00000+0 0  9992
2 36033   0.0166  50.4831 0002210  68.6155  61.2690  1.00269501 61147
INTELSAT 14 (IS-14)     
1 36097U 09064A   26181.79148582 -.00000263  00000+0  00000+0 0  9996
2 36097   0.0266 290.1951 0002736 171.9097  56.6835  1.00270248 60744
WGS F3 (USA 211)        
1 36108U 09068A   26181.77463066  .00000074  00000+0  00000+0 0  9997
2 36108   0.3098  85.7225 0000588 345.9918 356.0069  1.00271419 46722
BEIDOU-2 G1             
1 36287U 10001A   26181.61433774 -.00000272  00000+0  00000+0 0  9991
2 36287   4.3240  60.3684 0002161 309.0805 270.8765  1.00272139 60302
SDO                     
1 36395U 10005A   26181.24558567 -.00000090  00000+0  00000+0 0  9990
2 36395  34.6771  86.1450 0001493  51.4419 126.9147  1.00270579 60198
ECHOSTAR 14             
1 36499U 10010A   26181.60496880  .00000011  00000+0  00000+0 0  9992
2 36499   0.0154 320.7663 0002346 127.6514 289.1441  1.00271372 46687
SES-1                   
1 36516U 10016A   26181.59817933 -.00000104  00000+0  00000+0 0  9996
2 36516   0.0206 320.6511 0002951 135.1829 297.1768  1.00272165 59160
